{
  "type": "FeatureCollection",
  "features": [
    {
      "type": "Feature",
      "properties": {
        "norad_id": 37846,
        "name": "GSAT0101 (GALILEO-PFM)",
        "group": "galileo",
        "lat": -24.908651469848245,
        "lon": -30.519761259382072,
        "alt_km": 23217.459452345494,
        "timestamp": "2025-12-05T19:30:25.828344+00:00",
        "meta_object_name": "GSAT0101 (GALILEO-PFM)",
        "meta_object_id": "2011-060A",
        "meta_epoch": "2025-12-04T02:27:04.519296",
        "meta_mean_motion": 1.70475494,
        "meta_eccentricity": 0.00028233,
        "meta_inclination": 57.0547,
        "meta_ra_of_asc_node": 347.0545,
        "meta_arg_of_pericenter": 310.6019,
        "meta_mean_anomaly": 49.4066,
        "meta_ephemeris_type": 0,
        "meta_classification_type": "U",
        "meta_norad_cat_id": 37846,
        "meta_element_set_no": 999,
        "meta_rev_at_epoch": 8779,
        "meta_bstar": 0,
        "meta_mean_motion_dot": -7e-07,
        "meta_mean_motion_ddot": 0,
        "tle_line1": "1 37846U 11060A   25338.10213564 -.00000070  00000+0  00000+0 0  9995",
        "tle_line2": "2 37846  57.0547 347.0545 0002823 310.6019  49.4066  1.70475494 87792"
      },
      "geometry": {
        "type": "Point",
        "coordinates": [
          -30.519761259382072,
          -24.908651469848245
        ]
      }
    },
    {
      "type": "Feature",
      "properties": {
        "norad_id": 37847,
        "name": "GSAT0102 (GALILEO-FM2)",
        "group": "galileo",
        "lat": 12.845669304027279,
        "lon": -4.484098983456325,
        "alt_km": 23215.30312835614,
        "timestamp": "2025-12-05T19:30:25.828366+00:00",
        "meta_object_name": "GSAT0102 (GALILEO-FM2)",
        "meta_object_id": "2011-060B",
        "meta_epoch": "2025-12-05T04:42:38.564352",
        "meta_mean_motion": 1.70475694,
        "meta_eccentricity": 0.00048427,
        "meta_inclination": 57.0552,
        "meta_ra_of_asc_node": 347.0252,
        "meta_arg_of_pericenter": 307.1958,
        "meta_mean_anomaly": 49.7725,
        "meta_ephemeris_type": 0,
        "meta_classification_type": "U",
        "meta_norad_cat_id": 37847,
        "meta_element_set_no": 999,
        "meta_rev_at_epoch": 8781,
        "meta_bstar": 0,
        "meta_mean_motion_dot": -7.6e-07,
        "meta_mean_motion_ddot": 0,
        "tle_line1": "1 37847U 11060B   25339.19627968 -.00000076  00000+0  00000+0 0  9999",
        "tle_line2": "2 37847  57.0552 347.0252 0004842 307.1958  49.7725  1.70475694 87810"
      },
      "geometry": {
        "type": "Point",
        "coordinates": [
          -4.484098983456325,
          12.845669304027279
        ]
      }
    },
    {
      "type": "Feature",
      "properties": {
        "norad_id": 38857,
        "name": "GSAT0103 (GALILEO-FM3)",
        "group": "galileo",
        "lat": -42.392806234046255,
        "lon": 68.30522308549968,
        "alt_km": 23221.89948040885,
        "timestamp": "2025-12-05T19:30:25.828381+00:00",
        "meta_object_name": "GSAT0103 (GALILEO-FM3)",
        "meta_object_id": "2012-055A",
        "meta_epoch": "2025-12-01T05:01:21.613152",
        "meta_mean_motion": 1.70473256,
        "meta_eccentricity": 0.00023005,
        "meta_inclination": 55.6823,
        "meta_ra_of_asc_node": 106.9832,
        "meta_arg_of_pericenter": 267.1494,
        "meta_mean_anomaly": 92.7944,
        "meta_ephemeris_type": 0,
        "meta_classification_type": "U",
        "meta_norad_cat_id": 38857,
        "meta_element_set_no": 999,
        "meta_rev_at_epoch": 8163,
        "meta_bstar": 0,
        "meta_mean_motion_dot": 4.2e-07,
        "meta_mean_motion_ddot": 0,
        "tle_line1": "1 38857U 12055A   25335.20927793  .00000042  00000+0  00000+0 0  9995",
        "tle_line2": "2 38857  55.6823 106.9832 0002300 267.1494  92.7944  1.70473256 81637"
      },
      "geometry": {
        "type": "Point",
        "coordinates": [
          68.30522308549968,
          -42.392806234046255
        ]
      }
    },
    {
      "type": "Feature",
      "properties": {
        "norad_id": 40128,
        "name": "GSAT0201 (GALILEO 5)",
        "group": "galileo",
        "lat": -37.87445940341154,
        "lon": -121.01874131865813,
        "alt_km": 24348.106065960706,
        "timestamp": "2025-12-05T19:30:25.828394+00:00",
        "meta_object_name": "GSAT0201 (GALILEO 5)",
        "meta_object_id": "2014-050A",
        "meta_epoch": "2025-11-28T09:00:06.762528",
        "meta_mean_motion": 1.85519533,
        "meta_eccentricity": 0.16464881,
        "meta_inclination": 49.0938,
        "meta_ra_of_asc_node": 281.6492,
        "meta_arg_of_pericenter": 171.7362,
        "meta_mean_anomaly": 191.3851,
        "meta_ephemeris_type": 0,
        "meta_classification_type": "U",
        "meta_norad_cat_id": 40128,
        "meta_element_set_no": 999,
        "meta_rev_at_epoch": 7459,
        "meta_bstar": 0,
        "meta_mean_motion_dot": -4.8e-07,
        "meta_mean_motion_ddot": 0,
        "tle_line1": "1 40128U 14050A   25332.37507827 -.00000048  00000+0  00000+0 0  9990",
        "tle_line2": "2 40128  49.0938 281.6492 1646488 171.7362 191.3851  1.85519533 74599"
      },
      "geometry": {
        "type": "Point",
        "coordinates": [
          -121.01874131865813,
          -37.87445940341154
        ]
      }
    },
    {
      "type": "Feature",
      "properties": {
        "norad_id": 40129,
        "name": "GSAT0202 (GALILEO 6)",
        "group": "galileo",
        "lat": 47.605711045951004,
        "lon": 28.95677135214109,
        "alt_km": 19398.35731172555,
        "timestamp": "2025-12-05T19:30:25.828406+00:00",
        "meta_object_name": "GSAT0202 (GALILEO 6)",
        "meta_object_id": "2014-050B",
        "meta_epoch": "2025-12-02T22:38:17.581056",
        "meta_mean_motion": 1.8552031,
        "meta_eccentricity": 0.1647571,
        "meta_inclination": 49.1042,
        "meta_ra_of_asc_node": 280.5465,
        "meta_arg_of_pericenter": 172.6616,
        "meta_mean_anomaly": 190.1192,
        "meta_ephemeris_type": 0,
        "meta_classification_type": "U",
        "meta_norad_cat_id": 40129,
        "meta_element_set_no": 999,
        "meta_rev_at_epoch": 7684,
        "meta_bstar": 0,
        "meta_mean_motion_dot": -5.9e-07,
        "meta_mean_motion_ddot": 0,
        "tle_line1": "1 40129U 14050B   25336.94325904 -.00000059  00000+0  00000+0 0  9994",
        "tle_line2": "2 40129  49.1042 280.5465 1647571 172.6616 190.1192  1.85520310 76841"
      },
      "geometry": {
        "type": "Point",
        "coordinates": [
          28.95677135214109,
          47.605711045951004
        ]
      }
    },
    {
      "type": "Feature",
      "properties": {
        "norad_id": 40544,
        "name": "GSAT0203 (GALILEO 7)",
        "group": "galileo",
        "lat": 53.574190106456264,
        "lon": 104.50872566650985,
        "alt_km": 23234.241531159358,
        "timestamp": "2025-12-05T19:30:25.828418+00:00",
        "meta_object_name": "GSAT0203 (GALILEO 7)",
        "meta_object_id": "2015-017A",
        "meta_epoch": "2025-12-03T07:02:53.463840",
        "meta_mean_motion": 1.70475768,
        "meta_eccentricity": 0.00065008,
        "meta_inclination": 56.8485,
        "meta_ra_of_asc_node": 346.9379,
        "meta_arg_of_pericenter": 269.0414,
        "meta_mean_anomaly": 90.9202,
        "meta_ephemeris_type": 0,
        "meta_classification_type": "U",
        "meta_norad_cat_id": 40544,
        "meta_element_set_no": 999,
        "meta_rev_at_epoch": 6586,
        "meta_bstar": 0,
        "meta_mean_motion_dot": -6.7e-07,
        "meta_mean_motion_ddot": 0,
        "tle_line1": "1 40544U 15017A   25337.29367435 -.00000067  00000+0  00000+0 0  9992",
        "tle_line2": "2 40544  56.8485 346.9379 0006500 269.0414  90.9202  1.70475768 65865"
      },
      "geometry": {
        "type": "Point",
        "coordinates": [
          104.50872566650985,
          53.574190106456264
        ]
      }
    },
    {
      "type": "Feature",
      "properties": {
        "norad_id": 40545,
        "name": "GSAT0204 (GALILEO 8)",
        "group": "galileo",
        "lat": -40.39509674512068,
        "lon": -46.903358478296816,
        "alt_km": 23214.452812046882,
        "timestamp": "2025-12-05T19:30:25.828446+00:00",
        "meta_object_name": "GSAT0204 (GALILEO 8)",
        "meta_object_id": "2015-017B",
        "meta_epoch": "2025-12-04T03:15:24.834240",
        "meta_mean_motion": 1.70475395,
        "meta_eccentricity": 0.00062587,
        "meta_inclination": 56.8537,
        "meta_ra_of_asc_node": 346.9325,
        "meta_arg_of_pericenter": 261.1307,
        "meta_mean_anomaly": 98.8308,
        "meta_ephemeris_type": 0,
        "meta_classification_type": "U",
        "meta_norad_cat_id": 40545,
        "meta_element_set_no": 999,
        "meta_rev_at_epoch": 2892,
        "meta_bstar": 0,
        "meta_mean_motion_dot": -7.1e-07,
        "meta_mean_motion_ddot": 0,
        "tle_line1": "1 40545U 15017B   25338.13570410 -.00000071  00000+0  00000+0 0  9991",
        "tle_line2": "2 40545  56.8537 346.9325 0006258 261.1307  98.8308  1.70475395 28925"
      },
      "geometry": {
        "type": "Point",
        "coordinates": [
          -46.903358478296816,
          -40.39509674512068
        ]
      }
    }
  ]
}